STARLINK-35145          
1 65685U 25212K   26058.19852588  .00020717  00000+0  70965-3 0  9995
2 65685  53.1614  34.6646 0001133  82.4177 277.6953 15.30198905 25588
STARLINK-35137          
1 65686U 25212L   26058.14449410  .00026861  00000+0  67924-3 0  9994
2 65686  53.1605  25.0480 0001082 121.6128 238.4983 15.39615929 25716
STARLINK-34856          
1 65687U 25212M   26058.22162445  .00029816  00000+0  10151-2 0  9996
2 65687  53.1592  34.0995 0001037  75.4564 284.6552 15.30191330 25590
STARLINK-34930          
1 65688U 25212N   26058.23112312  .00018133  00000+0  62285-3 0  9992
2 65688  53.1590  34.1578 0001224  71.7702 288.3432 15.30201106 25645
STARLINK-34875          
1 65689U 25212P   26058.19219380  .00024358  00000+0  83153-3 0  9994
2 65689  53.1614  34.6252 0001547  79.4342 280.6833 15.30211728 25630
STARLINK-34790          
1 65690U 25212Q   26058.25434016  .00027172  00000+0  92614-3 0  9997
2 65690  53.1611  34.3014 0001294  73.8981 286.2162 15.30201543 25594
STARLINK-34691          
1 65691U 25212R   26058.17690487  .00051988  00000+0  13017-2 0  9996
2 65691  53.1601  24.5365 0001166 104.8776 255.2359 15.39599251 25778
STARLINK-34825          
1 65692U 25212S   26058.23745700  .00023064  00000+0  78869-3 0  9994
2 65692  53.1606  34.1940 0001253  76.5045 283.6095 15.30188978 25639
STARLINK-35060          
1 65693U 25212T   26058.19547757  .00071835  00000+0  17879-2 0  9994
2 65693  53.1600  24.6536 0001118  97.0252 263.0880 15.39637773 25777
STARLINK-35204          
1 65694U 25212U   26058.24802377  .00014453  00000+0  49938-3 0  9998
2 65694  53.1610  34.2605 0001390  91.2912 268.8248 15.30184323 25651
STARLINK-35221          
1 65695U 25212V   26058.22796464  .00029354  00000+0  99926-3 0  9994
2 65695  53.1586  34.1382 0001668 111.1731 248.9448 15.30200918 25654
STARLINK-34734          
1 65696U 25212W   26058.21529404  .00023182  00000+0  79268-3 0  9992
2 65696  53.1592  34.0518 0001051  98.0199 262.0922 15.30188144 25648
STARLINK-35113          
1 65697U 25212X   26058.20475248  .00026533  00000+0  90369-3 0  9996
2 65697  53.1609  33.9878 0001670  91.7112 268.4080 15.30238140 25644
STARLINK-35090          
1 65698U 25212Y   26058.24273307  .00015222  00000+0  52522-3 0  9995
2 65698  53.1600  34.2269 0001462  69.2968 290.8190 15.30187587 25641
STARLINK-35086          
1 65699U 25212Z   26058.20380823 -.00019823  00000+0 -66044-3 0  9991
2 65699  53.1603  34.6954 0001121 101.0570 259.0557 15.30126246 25588
STARLINK-35101          
1 65700U 25212AA  26058.21001598  .00016703  00000+0  57484-3 0  9994
2 65700  53.1596  34.0220 0001253  80.3101 279.8042 15.30197048 25595
