[{"OBJECT_NAME":"STARLINK-35145","OBJECT_ID":"2025-212K","EPOCH":"2026-02-27T04:45:52.636032","MEAN_MOTION":15.30198905,"ECCENTRICITY":0.00011335,"INCLINATION":53.1614,"RA_OF_ASC_NODE":34.6646,"ARG_OF_PERICENTER":82.4177,"MEAN_ANOMALY":277.6953,"EPHEMERIS_TYPE":0,"CLASSIFICATION_TYPE":"U","NORAD_CAT_ID":65685,"ELEMENT_SET_NO":999,"REV_AT_EPOCH":2558,"BSTAR":0.00070965389,"MEAN_MOTION_DOT":0.00020717,"MEAN_MOTION_DDOT":0},{"OBJECT_NAME":"STARLINK-35137","OBJECT_ID":"2025-212L","EPOCH":"2026-02-27T03:28:04.290240","MEAN_MOTION":15.39615929,"ECCENTRICITY":0.00010829,"INCLINATION":53.1605,"RA_OF_ASC_NODE":25.048,"ARG_OF_PERICENTER":121.6128,"MEAN_ANOMALY":238.4983,"EPHEMERIS_TYPE":0,"CLASSIFICATION_TYPE":"U","NORAD_CAT_ID":65686,"ELEMENT_SET_NO":999,"REV_AT_EPOCH":2571,"BSTAR":0.00067923504,"MEAN_MOTION_DOT":0.00026861,"MEAN_MOTION_DDOT":0},{"OBJECT_NAME":"STARLINK-34856","OBJECT_ID":"2025-212M","EPOCH":"2026-02-27T05:19:08.352480","MEAN_MOTION":15.3019133,"ECCENTRICITY":0.00010375,"INCLINATION":53.1592,"RA_OF_ASC_NODE":34.0995,"ARG_OF_PERICENTER":75.4564,"MEAN_ANOMALY":284.6552,"EPHEMERIS_TYPE":0,"CLASSIFICATION_TYPE":"U","NORAD_CAT_ID":65687,"ELEMENT_SET_NO":999,"REV_AT_EPOCH":2559,"BSTAR":0.0010150534,"MEAN_MOTION_DOT":0.00029816,"MEAN_MOTION_DDOT":0},{"OBJECT_NAME":"STARLINK-34930","OBJECT_ID":"2025-212N","EPOCH":"2026-02-27T05:32:49.037568","MEAN_MOTION":15.30201106,"ECCENTRICITY":0.00012244,"INCLINATION":53.159,"RA_OF_ASC_NODE":34.1578,"ARG_OF_PERICENTER":71.7702,"MEAN_ANOMALY":288.3432,"EPHEMERIS_TYPE":0,"CLASSIFICATION_TYPE":"U","NORAD_CAT_ID":65688,"ELEMENT_SET_NO":999,"REV_AT_EPOCH":2564,"BSTAR":0.00062284648,"MEAN_MOTION_DOT":0.00018133,"MEAN_MOTION_DDOT":0},{"OBJECT_NAME":"STARLINK-34875","OBJECT_ID":"2025-212P","EPOCH":"2026-02-27T04:36:45.544320","MEAN_MOTION":15.30211728,"ECCENTRICITY":0.00015471,"INCLINATION":53.1614,"RA_OF_ASC_NODE":34.6252,"ARG_OF_PERICENTER":79.4342,"MEAN_ANOMALY":280.6833,"EPHEMERIS_TYPE":0,"CLASSIFICATION_TYPE":"U","NORAD_CAT_ID":65689,"ELEMENT_SET_NO":999,"REV_AT_EPOCH":2563,"BSTAR":0.00083152949,"MEAN_MOTION_DOT":0.00024358,"MEAN_MOTION_DDOT":0},{"OBJECT_NAME":"STARLINK-34790","OBJECT_ID":"2025-212Q","EPOCH":"2026-02-27T06:06:14.989824","MEAN_MOTION":15.30201543,"ECCENTRICITY":0.00012942,"INCLINATION":53.1611,"RA_OF_ASC_NODE":34.3014,"ARG_OF_PERICENTER":73.8981,"MEAN_ANOMALY":286.2162,"EPHEMERIS_TYPE":0,"CLASSIFICATION_TYPE":"U","NORAD_CAT_ID":65690,"ELEMENT_SET_NO":999,"REV_AT_EPOCH":2559,"BSTAR":0.00092614351,"MEAN_MOTION_DOT":0.00027172,"MEAN_MOTION_DDOT":0},{"OBJECT_NAME":"STARLINK-34691","OBJECT_ID":"2025-212R","EPOCH":"2026-02-27T04:14:44.580768","MEAN_MOTION":15.39599251,"ECCENTRICITY":0.00011667,"INCLINATION":53.1601,"RA_OF_ASC_NODE":24.5365,"ARG_OF_PERICENTER":104.8776,"MEAN_ANOMALY":255.2359,"EPHEMERIS_TYPE":0,"CLASSIFICATION_TYPE":"U","NORAD_CAT_ID":65691,"ELEMENT_SET_NO":999,"REV_AT_EPOCH":2577,"BSTAR":0.0013017272,"MEAN_MOTION_DOT":0.00051988,"MEAN_MOTION_DDOT":0},{"OBJECT_NAME":"STARLINK-34825","OBJECT_ID":"2025-212S","EPOCH":"2026-02-27T05:41:56.284800","MEAN_MOTION":15.30188978,"ECCENTRICITY":0.00012539,"INCLINATION":53.1606,"RA_OF_ASC_NODE":34.194,"ARG_OF_PERICENTER":76.5045,"MEAN_ANOMALY":283.6095,"EPHEMERIS_TYPE":0,"CLASSIFICATION_TYPE":"U","NORAD_CAT_ID":65692,"ELEMENT_SET_NO":999,"REV_AT_EPOCH":2563,"BSTAR":0.00078869315,"MEAN_MOTION_DOT":0.00023064,"MEAN_MOTION_DDOT":0},{"OBJECT_NAME":"STARLINK-35060","OBJECT_ID":"2025-212T","EPOCH":"2026-02-27T04:41:29.262048","MEAN_MOTION":15.39637773,"ECCENTRICITY":0.00011182,"INCLINATION":53.16,"RA_OF_ASC_NODE":24.6536,"ARG_OF_PERICENTER":97.0252,"MEAN_ANOMALY":263.088,"EPHEMERIS_TYPE":0,"CLASSIFICATION_TYPE":"U","NORAD_CAT_ID":65693,"ELEMENT_SET_NO":999,"REV_AT_EPOCH":2577,"BSTAR":0.0017879327,"MEAN_MOTION_DOT":0.00071835,"MEAN_MOTION_DDOT":0},{"OBJECT_NAME":"STARLINK-35204","OBJECT_ID":"2025-212U","EPOCH":"2026-02-27T05:57:09.253728","MEAN_MOTION":15.30184323,"ECCENTRICITY":0.000139,"INCLINATION":53.161,"RA_OF_ASC_NODE":34.2605,"ARG_OF_PERICENTER":91.2912,"MEAN_ANOMALY":268.8248,"EPHEMERIS_TYPE":0,"CLASSIFICATION_TYPE":"U","NORAD_CAT_ID":65694,"ELEMENT_SET_NO":999,"REV_AT_EPOCH":2565,"BSTAR":0.00049937634,"MEAN_MOTION_DOT":0.00014453,"MEAN_MOTION_DDOT":0},{"OBJECT_NAME":"STARLINK-35221","OBJECT_ID":"2025-212V","EPOCH":"2026-02-27T05:28:16.144896","MEAN_MOTION":15.30200918,"ECCENTRICITY":0.00016686,"INCLINATION":53.1586,"RA_OF_ASC_NODE":34.1382,"ARG_OF_PERICENTER":111.1731,"MEAN_ANOMALY":248.9448,"EPHEMERIS_TYPE":0,"CLASSIFICATION_TYPE":"U","NORAD_CAT_ID":65695,"ELEMENT_SET_NO":999,"REV_AT_EPOCH":2565,"BSTAR":0.00099925939,"MEAN_MOTION_DOT":0.00029354,"MEAN_MOTION_DDOT":0},{"OBJECT_NAME":"STARLINK-34734","OBJECT_ID":"2025-212W","EPOCH":"2026-02-27T05:10:01.405056","MEAN_MOTION":15.30188144,"ECCENTRICITY":0.00010519,"INCLINATION":53.1592,"RA_OF_ASC_NODE":34.0518,"ARG_OF_PERICENTER":98.0199,"MEAN_ANOMALY":262.0922,"EPHEMERIS_TYPE":0,"CLASSIFICATION_TYPE":"U","NORAD_CAT_ID":65696,"ELEMENT_SET_NO":999,"REV_AT_EPOCH":2564,"BSTAR":0.00079267939,"MEAN_MOTION_DOT":0.00023182,"MEAN_MOTION_DDOT":0},{"OBJECT_NAME":"STARLINK-35113","OBJECT_ID":"2025-212X","EPOCH":"2026-02-27T04:54:50.614272","MEAN_MOTION":15.3023814,"ECCENTRICITY":0.000167,"INCLINATION":53.1609,"RA_OF_ASC_NODE":33.9878,"ARG_OF_PERICENTER":91.7112,"MEAN_ANOMALY":268.408,"EPHEMERIS_TYPE":0,"CLASSIFICATION_TYPE":"U","NORAD_CAT_ID":65697,"ELEMENT_SET_NO":999,"REV_AT_EPOCH":2564,"BSTAR":0.00090369455,"MEAN_MOTION_DOT":0.00026533,"MEAN_MOTION_DDOT":0},{"OBJECT_NAME":"STARLINK-35090","OBJECT_ID":"2025-212Y","EPOCH":"2026-02-27T05:49:32.137248","MEAN_MOTION":15.30187587,"ECCENTRICITY":0.00014621,"INCLINATION":53.16,"RA_OF_ASC_NODE":34.2269,"ARG_OF_PERICENTER":69.2968,"MEAN_ANOMALY":290.819,"EPHEMERIS_TYPE":0,"CLASSIFICATION_TYPE":"U","NORAD_CAT_ID":65698,"ELEMENT_SET_NO":999,"REV_AT_EPOCH":2564,"BSTAR":0.00052522497,"MEAN_MOTION_DOT":0.00015222,"MEAN_MOTION_DDOT":0},{"OBJECT_NAME":"STARLINK-35086","OBJECT_ID":"2025-212Z","EPOCH":"2026-02-27T04:53:29.031072","MEAN_MOTION":15.30126246,"ECCENTRICITY":0.00011216,"INCLINATION":53.1603,"RA_OF_ASC_NODE":34.6954,"ARG_OF_PERICENTER":101.057,"MEAN_ANOMALY":259.0557,"EPHEMERIS_TYPE":0,"CLASSIFICATION_TYPE":"U","NORAD_CAT_ID":65699,"ELEMENT_SET_NO":999,"REV_AT_EPOCH":2558,"BSTAR":-0.0006604392,"MEAN_MOTION_DOT":-0.00019823,"MEAN_MOTION_DDOT":0},{"OBJECT_NAME":"STARLINK-35101","OBJECT_ID":"2025-212AA","EPOCH":"2026-02-27T05:02:25.380672","MEAN_MOTION":15.30197048,"ECCENTRICITY":0.00012539,"INCLINATION":53.1596,"RA_OF_ASC_NODE":34.022,"ARG_OF_PERICENTER":80.3101,"MEAN_ANOMALY":279.8042,"EPHEMERIS_TYPE":0,"CLASSIFICATION_TYPE":"U","NORAD_CAT_ID":65700,"ELEMENT_SET_NO":999,"REV_AT_EPOCH":2559,"BSTAR":0.00057484086,"MEAN_MOTION_DOT":0.00016703,"MEAN_MOTION_DDOT":0}]
